O3B MPOWER F1           
1 54755U 22174A   24253.07209951 -.00000018  00000+0  00000+0 0  9999
2 54755   0.0559 345.5024 0006578 176.0308 155.4827  5.00113717 33037
